{"type": "FeatureCollection", "features": [ {"type": "Feature", "properties": {"norad_id": 37003, "name": "FENGYUN 1C DEB", "group": "fengyun-1c-debris", "lat": 63.51458088468061, "lon": -12.462651500653601, "alt_km": 924.4548585469765, "timestamp": "2025-12-07T22:37:43.368985+00:00", "meta": {"OBJECT_NAME": "FENGYUN 1C DEB", "OBJECT_ID": "1999-025ECK", "EPOCH": "2025-12-05T21:02:12.179040", "MEAN_MOTION": 13.96201214, "ECCENTRICITY": 0.00966508, "INCLINATION": 98.8459, "RA_OF_ASC_NODE": 3.764, "ARG_OF_PERICENTER": 180.8948, "MEAN_ANOMALY": 304.7411, "EPHEMERIS_TYPE": 0, "CLASSIFICATION_TYPE": "U", "NORAD_CAT_ID": 37003, "ELEMENT_SET_NO": 999, "REV_AT_EPOCH": 60561, "BSTAR": 0.0011542513, "MEAN_MOTION_DOT": 1.609e-05, "MEAN_MOTION_DDOT": 0}, "tle": {"line1": "1 37003U 99025ECK 25339.87652985  .00001609  00000+0  11543-2 0  9991", "line2": "2 37003  98.8459   3.7640 0096650 180.8948 304.7411 13.96201214605619"}}, "geometry": {"type": "Point", "coordinates": [-12.462651500653601, 63.51458088468061]}}, {"type": "Feature", "properties": {"norad_id": 37006, "name": "FENGYUN 1C DEB", "group": "fengyun-1c-debris", "lat": -16.60200517947058, "lon": 47.21593127180117, "alt_km": 655.7589453035444, "timestamp": "2025-12-07T22:37:43.368996+00:00", "meta": {"OBJECT_NAME": "FENGYUN 1C DEB", "OBJECT_ID": "1999-025ECN", "EPOCH": "2025-12-06T22:29:36.867264", "MEAN_MOTION": 14.48820343, "ECCENTRICITY": 0.02555667, "INCLINATION": 99.2984, "RA_OF_ASC_NODE": 228.9078, "ARG_OF_PERICENTER": 265.4135, "MEAN_ANOMALY": 91.7825, "EPHEMERIS_TYPE": 0, "CLASSIFICATION_TYPE": "U", "NORAD_CAT_ID": 37006, "ELEMENT_SET_NO": 999, "REV_AT_EPOCH": 65030, "BSTAR": 0.0012906883, "MEAN_MOTION_DOT": 7.334e-05, "MEAN_MOTION_DDOT": 0}, "tle": {"line1": "1 37006U 99025ECN 25340.93723226  .00007334  00000+0  12907-2 0  9996", "line2": "2 37006  99.2984 228.9078 0255566 265.4135  91.7825 14.48820343650303"}}, "geometry": {"type": "Point", "coordinates": [47.21593127180117, -16.60200517947058]}}, {"type": "Feature", "properties": {"norad_id": 37008, "name": "FENGYUN 1C DEB", "group": "fengyun-1c-debris", "lat": -46.38701013618233, "lon": -88.98612312474566, "alt_km": 838.9003812955207, "timestamp": "2025-12-07T22:37:43.369007+00:00", "meta": {"OBJECT_NAME": "FENGYUN 1C DEB", "OBJECT_ID": "1999-025ECQ", "EPOCH": "2025-12-06T18:15:29.665728", "MEAN_MOTION": 14.07893921, "ECCENTRICITY": 0.00615181, "INCLINATION": 99.1355, "RA_OF_ASC_NODE": 99.5419, "ARG_OF_PERICENTER": 270.1561, "MEAN_ANOMALY": 89.2559, "EPHEMERIS_TYPE": 0, "CLASSIFICATION_TYPE": "U", "NORAD_CAT_ID": 37008, "ELEMENT_SET_NO": 999, "REV_AT_EPOCH": 60230, "BSTAR": 0.0023851365, "MEAN_MOTION_DOT": 4.074e-05, "MEAN_MOTION_DDOT": 0}, "tle": {"line1": "1 37008U 99025ECQ 25340.76076002  .00004074  00000+0  23851-2 0  9990", "line2": "2 37008  99.1355  99.5419 0061518 270.1561  89.2559 14.07893921602305"}}, "geometry": {"type": "Point", "coordinates": [-88.98612312474566, -46.38701013618233]}}, {"type": "Feature", "properties": {"norad_id": 37017, "name": "FENGYUN 1C DEB", "group": "fengyun-1c-debris", "lat": -13.508194844976085, "lon": -71.55283238786754, "alt_km": 590.0834668399248, "timestamp": "2025-12-07T22:37:43.369017+00:00", "meta": {"OBJECT_NAME": "FENGYUN 1C DEB", "OBJECT_ID": "1999-025ECZ", "EPOCH": "2025-12-07T02:41:07.464480", "MEAN_MOTION": 14.40523067, "ECCENTRICITY": 0.02833122, "INCLINATION": 98.7906, "RA_OF_ASC_NODE": 285.4621, "ARG_OF_PERICENTER": 21.9505, "MEAN_ANOMALY": 339.354, "EPHEMERIS_TYPE": 0, "CLASSIFICATION_TYPE": "U", "NORAD_CAT_ID": 37017, "ELEMENT_SET_NO": 999, "REV_AT_EPOCH": 61080, "BSTAR": 0.0027949354, "MEAN_MOTION_DOT": 0.00014313, "MEAN_MOTION_DDOT": 0}, "tle": {"line1": "1 37017U 99025ECZ 25341.11189195  .00014313  00000+0  27949-2 0  9997", "line2": "2 37017  98.7906 285.4621 0283312  21.9505 339.3540 14.40523067610802"}}, "geometry": {"type": "Point", "coordinates": [-71.55283238786754, -13.508194844976085]}}, {"type": "Feature", "properties": {"norad_id": 37021, "name": "FENGYUN 1C DEB", "group": "fengyun-1c-debris", "lat": -53.8497312500378, "lon": 167.12162745126912, "alt_km": 683.4478353290942, "timestamp": "2025-12-07T22:37:43.369028+00:00", "meta": {"OBJECT_NAME": "FENGYUN 1C DEB", "OBJECT_ID": "1999-025EDD", "EPOCH": "2025-12-04T08:05:12.810048", "MEAN_MOTION": 14.32214059, "ECCENTRICITY": 0.0175512, "INCLINATION": 98.3859, "RA_OF_ASC_NODE": 355.2821, "ARG_OF_PERICENTER": 276.8323, "MEAN_ANOMALY": 97.3533, "EPHEMERIS_TYPE": 0, "CLASSIFICATION_TYPE": "U", "NORAD_CAT_ID": 37021, "ELEMENT_SET_NO": 999, "REV_AT_EPOCH": 69934, "BSTAR": 0.0015095, "MEAN_MOTION_DOT": 4.777e-05, "MEAN_MOTION_DDOT": 0}, "tle": {"line1": "1 37021U 99025EDD 25338.33695382  .00004777  00000+0  15095-2 0  9994", "line2": "2 37021  98.3859 355.2821 0175512 276.8323  97.3533 14.32214059699347"}}, "geometry": {"type": "Point", "coordinates": [167.12162745126912, -53.8497312500378]}}, {"type": "Feature", "properties": {"norad_id": 37028, "name": "FENGYUN 1C DEB", "group": "fengyun-1c-debris", "lat": 46.8932372231155, "lon": -120.59463241923346, "alt_km": 801.9735449764985, "timestamp": "2025-12-07T22:37:43.369038+00:00", "meta": {"OBJECT_NAME": "FENGYUN 1C DEB", "OBJECT_ID": "1999-025EDL", "EPOCH": "2025-12-03T12:03:55.407168", "MEAN_MOTION": 14.22624791, "ECCENTRICITY": 0.00324291, "INCLINATION": 99.2455, "RA_OF_ASC_NODE": 244.7709, "ARG_OF_PERICENTER": 124.7401, "MEAN_ANOMALY": 235.6837, "EPHEMERIS_TYPE": 0, "CLASSIFICATION_TYPE": "U", "NORAD_CAT_ID": 37028, "ELEMENT_SET_NO": 999, "REV_AT_EPOCH": 60344, "BSTAR": 0.0024005824, "MEAN_MOTION_DOT": 5.352e-05, "MEAN_MOTION_DDOT": 0}, "tle": {"line1": "1 37028U 99025EDL 25337.50272462  .00005352  00000+0  24006-2 0  9991", "line2": "2 37028  99.2455 244.7709 0032429 124.7401 235.6837 14.22624791603447"}}, "geometry": {"type": "Point", "coordinates": [-120.59463241923346, 46.8932372231155]}}, {"type": "Feature", "properties": {"norad_id": 37036, "name": "FENGYUN 1C DEB", "group": "fengyun-1c-debris", "lat": 38.81361618133261, "lon": 161.95840171571277, "alt_km": 849.5968373599017, "timestamp": "2025-12-07T22:37:43.369049+00:00", "meta": {"OBJECT_NAME": "FENGYUN 1C DEB", "OBJECT_ID": "1999-025EDU", "EPOCH": "2025-12-05T16:56:11.377536", "MEAN_MOTION": 14.03551942, "ECCENTRICITY": 0.01242877, "INCLINATION": 98.7131, "RA_OF_ASC_NODE": 332.7285, "ARG_OF_PERICENTER": 74.8447, "MEAN_ANOMALY": 286.6428, "EPHEMERIS_TYPE": 0, "CLASSIFICATION_TYPE": "U", "NORAD_CAT_ID": 37036, "ELEMENT_SET_NO": 999, "REV_AT_EPOCH": 63649, "BSTAR": 0.00074827918, "MEAN_MOTION_DOT": 1.216e-05, "MEAN_MOTION_DDOT": 0}, "tle": {"line1": "1 37036U 99025EDU 25339.70568724  .00001216  00000+0  74828-3 0  9996", "line2": "2 37036  98.7131 332.7285 0124287  74.8447 286.6428 14.03551942636496"}}, "geometry": {"type": "Point", "coordinates": [161.95840171571277, 38.81361618133261]}}, {"type": "Feature", "properties": {"norad_id": 37044, "name": "FENGYUN 1C DEB", "group": "fengyun-1c-debris", "lat": 53.92547717216072, "lon": -79.14573446877147, "alt_km": 735.1394669163083, "timestamp": "2025-12-07T22:37:43.369059+00:00", "meta": {"OBJECT_NAME": "FENGYUN 1C DEB", "OBJECT_ID": "1999-025EEC", "EPOCH": "2025-12-04T02:53:44.693952", "MEAN_MOTION": 13.70576401, "ECCENTRICITY": 0.05097958, "INCLINATION": 98.9648, "RA_OF_ASC_NODE": 84.7582, "ARG_OF_PERICENTER": 184.1906, "MEAN_ANOMALY": 175.4892, "EPHEMERIS_TYPE": 0, "CLASSIFICATION_TYPE": "U", "NORAD_CAT_ID": 37044, "ELEMENT_SET_NO": 999, "REV_AT_EPOCH": 83740, "BSTAR": 0.0059542897, "MEAN_MOTION_DOT": 0.0001335, "MEAN_MOTION_DDOT": 0}, "tle": {"line1": "1 37044U 99025EEC 25338.12065618  .00013350  00000+0  59543-2 0  9992", "line2": "2 37044  98.9648  84.7582 0509795 184.1906 175.4892 13.70576401837404"}}, "geometry": {"type": "Point", "coordinates": [-79.14573446877147, 53.92547717216072]}}, {"type": "Feature", "properties": {"norad_id": 37046, "name": "FENGYUN 1C DEB", "group": "fengyun-1c-debris", "lat": -44.3691834616909, "lon": 4.790603015300175, "alt_km": 780.3606702600755, "timestamp": "2025-12-07T22:37:43.369069+00:00", "meta": {"OBJECT_NAME": "FENGYUN 1C DEB", "OBJECT_ID": "1999-025EEE", "EPOCH": "2025-11-28T06:15:00.234432", "MEAN_MOTION": 14.24764433, "ECCENTRICITY": 0.00496678, "INCLINATION": 98.5468, "RA_OF_ASC_NODE": 346.9063, "ARG_OF_PERICENTER": 349.8897, "MEAN_ANOMALY": 10.1279, "EPHEMERIS_TYPE": 0, "CLASSIFICATION_TYPE": "U", "NORAD_CAT_ID": 37046, "ELEMENT_SET_NO": 999, "REV_AT_EPOCH": 63975, "BSTAR": 0.00081954575, "MEAN_MOTION_DOT": 1.891e-05, "MEAN_MOTION_DDOT": 0}, "tle": {"line1": "1 37046U 99025EEE 25332.26041938  .00001891  00000+0  81955-3 0  9992", "line2": "2 37046  98.5468 346.9063 0049667 349.8897  10.1279 14.24764433639751"}}, "geometry": {"type": "Point", "coordinates": [4.790603015300175, -44.3691834616909]}}, {"type": "Feature", "properties": {"norad_id": 37048, "name": "FENGYUN 1C DEB", "group": "fengyun-1c-debris", "lat": 70.31498139377038, "lon": 49.590690366567685, "alt_km": 898.2769846003648, "timestamp": "2025-12-07T22:37:43.369080+00:00", "meta": {"OBJECT_NAME": "FENGYUN 1C DEB", "OBJECT_ID": "1999-025EEG", "EPOCH": "2025-12-02T20:47:13.549056", "MEAN_MOTION": 13.6513046, "ECCENTRICITY": 0.02527371, "INCLINATION": 98.8882, "RA_OF_ASC_NODE": 198.9974, "ARG_OF_PERICENTER": 175.2507, "MEAN_ANOMALY": 198.4807, "EPHEMERIS_TYPE": 0, "CLASSIFICATION_TYPE": "U", "NORAD_CAT_ID": 37048, "ELEMENT_SET_NO": 999, "REV_AT_EPOCH": 62035, "BSTAR": 0.00029274294, "MEAN_MOTION_DOT": 2.57e-06, "MEAN_MOTION_DDOT": 0}, "tle": {"line1": "1 37048U 99025EEG 25336.86612904  .00000257  00000+0  29274-3 0  9992", "line2": "2 37048  98.8882 198.9974 0252737 175.2507 198.4807 13.65130460620359"}}, "geometry": {"type": "Point", "coordinates": [49.590690366567685, 70.31498139377038]}}]}